38552,METEOSAT-10 (MSG-3),2012,1436.01,2000.0,+,3.83,Active,1,GSO,French Guiana,EUMETSAT,Civil/Government,Earth Observation,Ariane,1 38552U 12035B   25179.28366128 -.00000011  00000+0  00000+0 0  9995,2 38552   3.8339  62.0671 0000558  64.0705 252.9542  1.00277525 47305,1.00277525,5.58e-05,GSO
39216,INSAT-3D,2013,1436.03,2090.0,+,1.01,Active,1,GSO,French Guiana,India,Government,Earth Observation,Ariane,1 39216U 13038B   25179.55706182 -.00000345  00000+0  00000+0 0  9995,2 39216   1.0121  87.3781 0000419  30.7514 128.7729  1.00276531 43532,1.00276531,4.19e-05,GSO
40267,HIMAWARI-8,2014,1436.11,3500.0,+,0.01,Active,1,GSO,Japan,Japan,Government,Earth Observation,H2A,1 40267U 14060A   25179.56250354 -.00000282  00000+0  00000+0 0  9995,2 40267   0.0112  29.0906 0000723  86.8951 144.0650  1.00270670 39207,1.0027067,7.23e-05,GEO
40732,METEOSAT-11 (MSG-4),2015,1436.18,2000.0,+,2.32,Active,1,GSO,French Guiana,EUMETSAT,Civil/Government,Earth Observation,Ariane,1 40732U 15034A   25179.36225259  .00000055  00000+0  00000+0 0  9995,2 40732   2.3159  72.3848 0000556  96.6823 247.4408  1.00266068  3663,1.00266068,5.56e-05,GSO
41752,INSAT-3DR,2016,1436.1,2200.0,+,0.13,Active,1,GSO,India,India,Government,Earth Observation,GSLV,1 41752U 16054A   25179.51216806 -.00000083  00000+0  00000+0 0  9998,2 41752   0.1298  91.0391 0010305 176.5000 267.6618  1.00271636 32278,1.00271636,0.0010305,GEO
41836,HIMAWARI-9,2016,1436.12,3500.0,+,0.01,Active,1,GSO,Japan,Japan,Government,Earth Observation,H2A,1 41836U 16064A   25179.56250356 -.00000281  00000+0  00000+0 0  9995,2 41836   0.0136  65.7811 0000972  53.6394 140.7203  1.00269984 31662,1.00269984,9.72e-05,GEO
41866,GOES 16,2016,1436.1,5192.0,+,0.05,Active,1,GSO,USA,USA,Government,Earth Observation,Atlas,1 41866U 16071A   25179.54831295 -.00000096  00000+0  00000+0 0  9995,2 41866   0.0525 234.6404 0000728 277.2106 217.6895  1.00271772 31553,1.00271772,7.28e-05,GEO
41882,FENGYUN 4A,2016,1436.14,5300.0,+,1.42,Active,1,GSO,PRC,China,Government,Earth Observation,Long March,1 41882U 16077A   25179.59362302 -.00000363  00000+0  00000+0 0  9999,2 41882   1.4214  84.1686 0007096 167.1158   3.0863  1.00268862 31389,1.00268862,0.0007096,GSO
41884,CYGFM05,2016,93.44,29.0,X,34.96,Active,1,LEO,Eastern Range Airspace,USA,Government,Earth Observation,Pegasus,1 41884U 16078A   25179.05349562  .00009359  00000+0  22095-3 0  9991,2 41884  34.9614  56.0896 0008731  49.2024 310.9452 15.41022007473839,15.41022007,0.0008731,LEO
