[
  {
    "OBJECT_NAME": "METEOSAT-10 (MSG-3)",
    "OBJECT_ID": "2012-035B",
    "EPOCH": "2025-06-28T06:48:28.334592",
    "MEAN_MOTION": 1.00277525,
    "ECCENTRICITY": 5.58e-05,
    "INCLINATION": 3.8339,
    "RA_OF_ASC_NODE": 62.0671,
    "ARG_OF_PERICENTER": 64.0705,
    "MEAN_ANOMALY": 252.9542,
    "EPHEMERIS_TYPE": 0,
    "CLASSIFICATION_TYPE": "U",
    "NORAD_CAT_ID": 38552,
    "ELEMENT_SET_NO": 999,
    "REV_AT_EPOCH": 4730,
    "BSTAR": 0,
    "MEAN_MOTION_DOT": -1.1e-07,
    "MEAN_MOTION_DDOT": 0
  },
  {
    "OBJECT_NAME": "INSAT-3D",
    "OBJECT_ID": "2013-038B",
    "EPOCH": "2025-06-28T13:22:10.141248",
    "MEAN_MOTION": 1.00276531,
    "ECCENTRICITY": 4.19e-05,
    "INCLINATION": 1.0121,
    "RA_OF_ASC_NODE": 87.3781,
    "ARG_OF_PERICENTER": 30.7514,
    "MEAN_ANOMALY": 128.7729,
    "EPHEMERIS_TYPE": 0,
    "CLASSIFICATION_TYPE": "U",
    "NORAD_CAT_ID": 39216,
    "ELEMENT_SET_NO": 999,
    "REV_AT_EPOCH": 4353,
    "BSTAR": 0,
    "MEAN_MOTION_DOT": -3.45e-06,
    "MEAN_MOTION_DDOT": 0
  },
  {
    "OBJECT_NAME": "HIMAWARI-8",
    "OBJECT_ID": "2014-060A",
    "EPOCH": "2025-06-28T13:30:00.305856",
    "MEAN_MOTION": 1.0027067,
    "ECCENTRICITY": 7.23e-05,
    "INCLINATION": 0.0112,
    "RA_OF_ASC_NODE": 29.0906,
    "ARG_OF_PERICENTER": 86.8951,
    "MEAN_ANOMALY": 144.065,
    "EPHEMERIS_TYPE": 0,
    "CLASSIFICATION_TYPE": "U",
    "NORAD_CAT_ID": 40267,
    "ELEMENT_SET_NO": 999,
    "REV_AT_EPOCH": 3920,
    "BSTAR": 0,
    "MEAN_MOTION_DOT": -2.82e-06,
    "MEAN_MOTION_DDOT": 0
  },
  {
    "OBJECT_NAME": "METEOSAT-11 (MSG-4)",
    "OBJECT_ID": "2015-034A",
    "EPOCH": "2025-06-28T08:41:38.623776",
    "MEAN_MOTION": 1.00266068,
    "ECCENTRICITY": 5.56e-05,
    "INCLINATION": 2.3159,
    "RA_OF_ASC_NODE": 72.3848,
    "ARG_OF_PERICENTER": 96.6823,
    "MEAN_ANOMALY": 247.4408,
    "EPHEMERIS_TYPE": 0,
    "CLASSIFICATION_TYPE": "U",
    "NORAD_CAT_ID": 40732,
    "ELEMENT_SET_NO": 999,
    "REV_AT_EPOCH": 366,
    "BSTAR": 0,
    "MEAN_MOTION_DOT": 5.5e-07,
    "MEAN_MOTION_DDOT": 0
  },
  {
    "OBJECT_NAME": "INSAT-3DR",
    "OBJECT_ID": "2016-054A",
    "EPOCH": "2025-06-28T12:17:31.320384",
    "MEAN_MOTION": 1.00271636,
    "ECCENTRICITY": 0.0010305,
    "INCLINATION": 0.1298,
    "RA_OF_ASC_NODE": 91.0391,
    "ARG_OF_PERICENTER": 176.5,
    "MEAN_ANOMALY": 267.6618,
    "EPHEMERIS_TYPE": 0,
    "CLASSIFICATION_TYPE": "U",
    "NORAD_CAT_ID": 41752,
    "ELEMENT_SET_NO": 999,
    "REV_AT_EPOCH": 3227,
    "BSTAR": 0,
    "MEAN_MOTION_DOT": -8.3e-07,
    "MEAN_MOTION_DDOT": 0
  },
  {
    "OBJECT_NAME": "HIMAWARI-9",
    "OBJECT_ID": "2016-064A",
    "EPOCH": "2025-06-28T13:30:00.307584",
    "MEAN_MOTION": 1.00269984,
    "ECCENTRICITY": 9.72e-05,
    "INCLINATION": 0.0136,
    "RA_OF_ASC_NODE": 65.7811,
    "ARG_OF_PERICENTER": 53.6394,
    "MEAN_ANOMALY": 140.7203,
    "EPHEMERIS_TYPE": 0,
    "CLASSIFICATION_TYPE": "U",
    "NORAD_CAT_ID": 41836,
    "ELEMENT_SET_NO": 999,
    "REV_AT_EPOCH": 3166,
    "BSTAR": 0,
    "MEAN_MOTION_DOT": -2.81e-06,
    "MEAN_MOTION_DDOT": 0
  },
  {
    "OBJECT_NAME": "GOES 16",
    "OBJECT_ID": "2016-071A",
    "EPOCH": "2025-06-28T13:09:34.238880",
    "MEAN_MOTION": 1.00271772,
    "ECCENTRICITY": 7.28e-05,
    "INCLINATION": 0.0525,
    "RA_OF_ASC_NODE": 234.6404,
    "ARG_OF_PERICENTER": 277.2106,
    "MEAN_ANOMALY": 217.6895,
    "EPHEMERIS_TYPE": 0,
    "CLASSIFICATION_TYPE": "U",
    "NORAD_CAT_ID": 41866,
    "ELEMENT_SET_NO": 999,
    "REV_AT_EPOCH": 3155,
    "BSTAR": 0,
    "MEAN_MOTION_DOT": -9.6e-07,
    "MEAN_MOTION_DDOT": 0
  },
  {
    "OBJECT_NAME": "FENGYUN 4A",
    "OBJECT_ID": "2016-077A",
    "EPOCH": "2025-06-28T14:14:49.028928",
    "MEAN_MOTION": 1.00268862,
    "ECCENTRICITY": 0.0007096,
    "INCLINATION": 1.4214,
    "RA_OF_ASC_NODE": 84.1686,
    "ARG_OF_PERICENTER": 167.1158,
    "MEAN_ANOMALY": 3.0863,
    "EPHEMERIS_TYPE": 0,
    "CLASSIFICATION_TYPE": "U",
    "NORAD_CAT_ID": 41882,
    "ELEMENT_SET_NO": 999,
    "REV_AT_EPOCH": 3138,
    "BSTAR": 0,
    "MEAN_MOTION_DOT": -3.63e-06,
    "MEAN_MOTION_DDOT": 0
  },
  {
    "OBJECT_NAME": "CYGFM05",
    "OBJECT_ID": "2016-078A",
    "EPOCH": "2025-06-28T01:17:02.021568",
    "MEAN_MOTION": 15.41022007,
    "ECCENTRICITY": 0.0008731,
    "INCLINATION": 34.9614,
    "RA_OF_ASC_NODE": 56.0896,
    "ARG_OF_PERICENTER": 49.2024,
    "MEAN_ANOMALY": 310.9452,
    "EPHEMERIS_TYPE": 0,
    "CLASSIFICATION_TYPE": "U",
    "NORAD_CAT_ID": 41884,
    "ELEMENT_SET_NO": 999,
    "REV_AT_EPOCH": 47383,
    "BSTAR": 0.00022095,
    "MEAN_MOTION_DOT": 9.359e-05,
    "MEAN_MOTION_DDOT": 0
  }
]